IRIDIUM 57 [-]          
1 25273U 98019B   24057.86955476  .00000584  00000+0  19777-3 0  9994
2 25273  86.4017 344.7453 0002143  86.6087 273.5355 14.35100509356453
IRIDIUM 69 [-]          
1 25319U 98026A   24057.70297882  .00000471  00000+0  14395-3 0  9992
2 25319  86.3966 296.4590 0003621 121.5060 238.6493 14.39811755354474
IRIDIUM 71 [-]          
1 25320U 98026B   24057.72780690  .00000581  00000+0  17795-3 0  9999
2 25320  86.3950 291.2328 0001712 153.1191 207.0097 14.40136613354998
IRIDIUM 73 [-]          
1 25344U 98032C   24057.88473376  .00000890  00000+0  22319-3 0  9990
2 25344  86.4378 248.7353 0002408 103.4892 256.6581 14.50314557361490
IRIDIUM 82 [-]          
1 25467U 98051A   24057.83368740  .00014603  00000+0  79100-3 0  9997
2 25467  86.3923 338.4266 0134244 269.0984  89.4869 15.06976359351706
IRIDIUM 2 [-]           
1 25527U 98066A   24057.91239307  .00083801  00000+0  11595-2 0  9994
2 25527  85.5158  14.6730 0007652  76.2148 283.9964 15.56790604390460
